start=new Date('2021-12-03T00:00:00.000Z').valueOf();
sats=[{"CENTER_NAME":"EARTH","FILE":"3230859","INCLINATION":"53.0565","MEAN_MOTION_DDOT":"0.0000000000000","TIME_SYSTEM":"UTC","EPHEMERIS_TYPE":"0","APOAPSIS":"548.166","OBJECT_ID":"2021-040BM","MEAN_MOTION":"15.06395556","RA_OF_ASC_NODE":"356.4106","REF_FRAME":"TEME","OBJECT_NAME":"STARLINK-2494","NORAD_CAT_ID":"48487","RCS_SIZE":"LARGE","TLE_LINE2":"2 48487  53.0565 356.4106 0001355  58.7928 301.3193 15.06395556 31509","PERIAPSIS":"546.289","ARG_OF_PERICENTER":"58.7928","ELEMENT_SET_NO":"999","MEAN_ELEMENT_THEORY":"SGP4","LAUNCH_DATE":"2021-05-09","PERIOD":"95.592","COUNTRY_CODE":"US","DECAY_DATE":null,"MEAN_ANOMALY":"301.3193","CLASSIFICATION_TYPE":"U","ECCENTRICITY":"0.00013550","OBJECT_TYPE":"PAYLOAD","SEMIMAJOR_AXIS":"6925.362","EPOCH":"2021-12-02T13:04:13.906560","MEAN_MOTION_DOT":"0.00000726","REV_AT_EPOCH":"3150","SITE":"AFETR","TLE_LINE1":"1 48487U 21040BM  21336.54460540  .00000726  00000-0  67634-4 0  9996","GP_ID":"190945741","BSTAR":"0.00006763400000"},{"BSTAR":"0.00006208600000","TLE_LINE1":"1 48553U 21041A   21336.25618182  .00000643  00000-0  62086-4 0  9990","GP_ID":"190946357","SEMIMAJOR_AXIS":"6925.378","MEAN_MOTION_DOT":"0.00000643","EPOCH":"2021-12-02T06:08:54.109248","REV_AT_EPOCH":"3031","SITE":"AFETR","OBJECT_TYPE":"PAYLOAD","ECCENTRICITY":"0.00021250","CLASSIFICATION_TYPE":"U","MEAN_ANOMALY":"308.1990","PERIOD":"95.593","COUNTRY_CODE":"US","DECAY_DATE":null,"MEAN_ELEMENT_THEORY":"SGP4","LAUNCH_DATE":"2021-05-15","RCS_SIZE":"LARGE","TLE_LINE2":"2 48553  53.0555 287.7016 0002125  51.9190 308.1990 15.06390256 30310","PERIAPSIS":"545.772","ARG_OF_PERICENTER":"51.9190","ELEMENT_SET_NO":"999","MEAN_MOTION":"15.06390256","RA_OF_ASC_NODE":"287.7016","REF_FRAME":"TEME","NORAD_CAT_ID":"48553","OBJECT_NAME":"STARLINK-2063","OBJECT_ID":"2021-041A","EPHEMERIS_TYPE":"0","APOAPSIS":"548.715","MEAN_MOTION_DDOT":"0.0000000000000","INCLINATION":"53.0555","TIME_SYSTEM":"UTC","CENTER_NAME":"EARTH","FILE":"3230859"},{"MEAN_MOTION_DDOT":"0.0000000000000","INCLINATION":"53.0553","TIME_SYSTEM":"UTC","CENTER_NAME":"EARTH","FILE":"3231002","EPHEMERIS_TYPE":"0","APOAPSIS":"548.890","RA_OF_ASC_NODE":"287.6726","MEAN_MOTION":"15.06392767","NORAD_CAT_ID":"48554","OBJECT_NAME":"STARLINK-2139","REF_FRAME":"TEME","OBJECT_ID":"2021-041B","LAUNCH_DATE":"2021-05-15","MEAN_ELEMENT_THEORY":"SGP4","TLE_LINE2":"2 48554  53.0553 287.6726 0002389  55.2312 304.8902 15.06392767 30710","RCS_SIZE":"LARGE","ELEMENT_SET_NO":"999","ARG_OF_PERICENTER":"55.2312","PERIAPSIS":"545.581","MEAN_ANOMALY":"304.8902","COUNTRY_CODE":"US","PERIOD":"95.593","DECAY_DATE":null,"CLASSIFICATION_TYPE":"U","ECCENTRICITY":"0.00023890","REV_AT_EPOCH":"3071","SITE":"AFETR","SEMIMAJOR_AXIS":"6925.371","EPOCH":"2021-12-02T06:19:30.917856","MEAN_MOTION_DOT":"0.00000603","OBJECT_TYPE":"PAYLOAD","BSTAR":"0.00005940700000","GP_ID":"190949711","TLE_LINE1":"1 48554U 21041B   21336.26355229  .00000603  00000-0  59407-4 0  9991"},{"BSTAR":"0.00006953800000","GP_ID":"190949707","TLE_LINE1":"1 48555U 21041C   21336.29211796  .00000754  00000-0  69538-4 0  9998","REV_AT_EPOCH":"3062","SITE":"AFETR","SEMIMAJOR_AXIS":"6925.369","EPOCH":"2021-12-02T07:00:38.991744","MEAN_MOTION_DOT":"0.00000754","OBJECT_TYPE":"PAYLOAD","CLASSIFICATION_TYPE":"U","ECCENTRICITY":"0.00019220","MEAN_ANOMALY":"303.8217","COUNTRY_CODE":"US","PERIOD":"95.593","DECAY_DATE":null,"LAUNCH_DATE":"2021-05-15","MEAN_ELEMENT_THEORY":"SGP4","TLE_LINE2":"2 48555  53.0561 297.5387 0001922  56.2955 303.8217 15.06393305 30626","RCS_SIZE":"LARGE","ELEMENT_SET_NO":"999","ARG_OF_PERICENTER":"56.2955","PERIAPSIS":"545.903","MEAN_MOTION":"15.06393305","RA_OF_ASC_NODE":"297.5387","NORAD_CAT_ID":"48555","OBJECT_NAME":"STARLINK-2145","REF_FRAME":"TEME","OBJECT_ID":"2021-041C","EPHEMERIS_TYPE":"0","APOAPSIS":"548.565","INCLINATION":"53.0561","MEAN_MOTION_DDOT":"0.0000000000000","TIME_SYSTEM":"UTC","CENTER_NAME":"EARTH","FILE":"3231002"},{"OBJECT_TYPE":"PAYLOAD","SITE":"AFETR","REV_AT_EPOCH":"3013","MEAN_MOTION_DOT":"0.00000884","SEMIMAJOR_AXIS":"6925.357","EPOCH":"2021-12-02T00:22:33.703104","GP_ID":"190946206","TLE_LINE1":"1 48556U 21041D   21336.01566786  .00000884  00000-0  78235-4 0  9999","BSTAR":"0.00007823500000","DECAY_DATE":null,"COUNTRY_CODE":"US","PERIOD":"95.592","MEAN_ANOMALY":"293.0862","ECCENTRICITY":"0.00018490","CLASSIFICATION_TYPE":"U","OBJECT_ID":"2021-041D","NORAD_CAT_ID":"48556","OBJECT_NAME":"STARLINK-2151","REF_FRAME":"TEME","MEAN_MOTION":"15.06397336","RA_OF_ASC_NODE":"298.7724","ELEMENT_SET_NO":"999","ARG_OF_PERICENTER":"67.0322","PERIAPSIS":"545.941","TLE_LINE2":"2 48556  53.0577 298.7724 0001849  67.0322 293.0862 15.06397336 30138","RCS_SIZE":"LARGE","MEAN_ELEMENT_THEORY":"SGP4","LAUNCH_DATE":"2021-05-15","FILE":"3230859","CENTER_NAME":"EARTH","TIME_SYSTEM":"UTC","INCLINATION":"53.0577","MEAN_MOTION_DDOT":"0.0000000000000","APOAPSIS":"548.502","EPHEMERIS_TYPE":"0"},{"CENTER_NAME":"EARTH","FILE":"3230859","INCLINATION":"53.0557","MEAN_MOTION_DDOT":"0.0000000000000","TIME_SYSTEM":"UTC","EPHEMERIS_TYPE":"0","APOAPSIS":"548.741","OBJECT_ID":"2021-041E","RA_OF_ASC_NODE":"287.5772","MEAN_MOTION":"15.06400025","NORAD_CAT_ID":"48557","OBJECT_NAME":"STARLINK-2155","REF_FRAME":"TEME","TLE_LINE2":"2 48557  53.0557 287.5772 0002206  58.6946 301.4259 15.06400025 30316","RCS_SIZE":"LARGE","ELEMENT_SET_NO":"999","ARG_OF_PERICENTER":"58.6946","PERIAPSIS":"545.686","LAUNCH_DATE":"2021-05-15","MEAN_ELEMENT_THEORY":"SGP4","COUNTRY_CODE":"US","PERIOD":"95.592","DECAY_DATE":null,"MEAN_ANOMALY":"301.4259","CLASSIFICATION_TYPE":"U","ECCENTRICITY":"0.00022060","OBJECT_TYPE":"PAYLOAD","SITE":"AFETR","REV_AT_EPOCH":"3031","SEMIMAJOR_AXIS":"6925.348","EPOCH":"2021-12-02T06:51:20.855520","MEAN_MOTION_DOT":"0.00001267","GP_ID":"190946662","TLE_LINE1":"1 48557U 21041E   21336.28565805  .00001267  00000-0  10393-3 0  9996","BSTAR":"0.00010393000000"},{"MEAN_ANOMALY":"300.7188","DECAY_DATE":null,"PERIOD":"95.592","COUNTRY_CODE":"US","ECCENTRICITY":"0.00018710","CLASSIFICATION_TYPE":"U","SEMIMAJOR_AXIS":"6925.365","EPOCH":"2021-12-02T03:34:58.501344","MEAN_MOTION_DOT":"-0.00000245","SITE":"AFETR","REV_AT_EPOCH":"2943","OBJECT_TYPE":"PAYLOAD","BSTAR":"0.00000249350000","TLE_LINE1":"1 48558U 21041F   21336.14928821 -.00000245  00000-0  24935-5 0  9998","GP_ID":"190945902","TIME_SYSTEM":"UTC","MEAN_MOTION_DDOT":"0.0000000000000","INCLINATION":"53.0552","FILE":"3230859","CENTER_NAME":"EARTH","APOAPSIS":"548.525","EPHEMERIS_TYPE":"0","REF_FRAME":"TEME","NORAD_CAT_ID":"48558","OBJECT_NAME":"STARLINK-2166","MEAN_MOTION":"15.06394754","RA_OF_ASC_NODE":"288.1837","OBJECT_ID":"2021-041F","LAUNCH_DATE":"2021-05-15","MEAN_ELEMENT_THEORY":"SGP4","PERIAPSIS":"545.934","ELEMENT_SET_NO":"999","ARG_OF_PERICENTER":"59.3986","RCS_SIZE":"LARGE","TLE_LINE2":"2 48558  53.0552 288.1837 0001871  59.3986 300.7188 15.06394754 29435"},{"TLE_LINE2":"2 48559  53.0518 287.7172 0001898  60.1693 299.9485 15.06402890 30307","RCS_SIZE":"LARGE","ELEMENT_SET_NO":"999","ARG_OF_PERICENTER":"60.1693","PERIAPSIS":"545.890","MEAN_ELEMENT_THEORY":"SGP4","LAUNCH_DATE":"2021-05-15","OBJECT_ID":"2021-041G","RA_OF_ASC_NODE":"287.7172","MEAN_MOTION":"15.06402890","NORAD_CAT_ID":"48559","OBJECT_NAME":"STARLINK-2167","REF_FRAME":"TEME","EPHEMERIS_TYPE":"0","APOAPSIS":"548.519","CENTER_NAME":"EARTH","FILE":"3230859","INCLINATION":"53.0518","MEAN_MOTION_DDOT":"0.0000000000000","TIME_SYSTEM":"UTC","GP_ID":"190946054","TLE_LINE1":"1 48559U 21041G   21336.25153918  .00002115  00000-0  16087-3 0  9992","BSTAR":"0.00016087000000","OBJECT_TYPE":"PAYLOAD","REV_AT_EPOCH":"3030","SITE":"AFETR","EPOCH":"2021-12-02T06:02:12.985152","SEMIMAJOR_AXIS":"6925.340","MEAN_MOTION_DOT":"0.00002115","ECCENTRICITY":"0.00018980","CLASSIFICATION_TYPE":"U","COUNTRY_CODE":"US","PERIOD":"95.592","DECAY_DATE":null,"MEAN_ANOMALY":"299.9485"},{"OBJECT_TYPE":"PAYLOAD","SITE":"AFETR","REV_AT_EPOCH":"3130","MEAN_MOTION_DOT":"0.00552515","SEMIMAJOR_AXIS":"6782.530","EPOCH":"2021-12-02T08:18:15.181920","GP_ID":"190946510","TLE_LINE1":"1 48560U 21041H   21336.34600905  .00552515  00000-0  77669-2 0  9993","BSTAR":"0.00776690000000","COUNTRY_CODE":"US","PERIOD":"92.650","DECAY_DATE":null,"MEAN_ANOMALY":"270.2553","CLASSIFICATION_TYPE":"U","ECCENTRICITY":"0.00017020","OBJECT_ID":"2021-041H","MEAN_MOTION":"15.54229634","RA_OF_ASC_NODE":"281.9381","OBJECT_NAME":"STARLINK-2173","NORAD_CAT_ID":"48560","REF_FRAME":"TEME","TLE_LINE2":"2 48560  53.0506 281.9381 0001702  89.8652 270.2553 15.54229634 31306","RCS_SIZE":"MEDIUM","ELEMENT_SET_NO":"999","ARG_OF_PERICENTER":"89.8652","PERIAPSIS":"403.241","MEAN_ELEMENT_THEORY":"SGP4","LAUNCH_DATE":"2021-05-15","CENTER_NAME":"EARTH","FILE":"3230859","MEAN_MOTION_DDOT":"0.0000000000000","INCLINATION":"53.0506","TIME_SYSTEM":"UTC","EPHEMERIS_TYPE":"0","APOAPSIS":"405.549"},{"LAUNCH_DATE":"2021-05-15","MEAN_ELEMENT_THEORY":"SGP4","RCS_SIZE":"LARGE","TLE_LINE2":"2 48561  53.0566 256.2275 0002939  61.2246   4.2740 15.06398458  3586","PERIAPSIS":"545.183","ARG_OF_PERICENTER":"61.2246","ELEMENT_SET_NO":"999","MEAN_MOTION":"15.06398458","RA_OF_ASC_NODE":"256.2275","REF_FRAME":"TEME","NORAD_CAT_ID":"48561","OBJECT_NAME":"STARLINK-2186","OBJECT_ID":"2021-041J","EPHEMERIS_TYPE":"0","APOAPSIS":"549.254","MEAN_MOTION_DDOT":"0.0000000000000","INCLINATION":"53.0566","TIME_SYSTEM":"UTC","CENTER_NAME":"EARTH","FILE":"3230859","BSTAR":"-0.00061860000000","TLE_LINE1":"1 48561U 21041J   21336.58334491 -.00009484  00000-0 -61860-3 0  9995","GP_ID":"190946358","SEMIMAJOR_AXIS":"6925.353","EPOCH":"2021-12-02T14:00:01.000224","MEAN_MOTION_DOT":"-0.00009484","REV_AT_EPOCH":"358","SITE":"AFETR","OBJECT_TYPE":"PAYLOAD","ECCENTRICITY":"0.00029390","CLASSIFICATION_TYPE":"U","MEAN_ANOMALY":"4.2740","PERIOD":"95.592","COUNTRY_CODE":"US","DECAY_DATE":null}];
